[{"OBJECT_NAME":"OBJECT A","OBJECT_ID":"2025-284A","EPOCH":"2026-03-09T22:32:24.508320","MEAN_MOTION":13.97315283,"ECCENTRICITY":0.00115689,"INCLINATION":80.4065,"RA_OF_ASC_NODE":32.9065,"ARG_OF_PERICENTER":141.4365,"MEAN_ANOMALY":218.7625,"EPHEMERIS_TYPE":0,"CLASSIFICATION_TYPE":"U","NORAD_CAT_ID":66913,"ELEMENT_SET_NO":999,"REV_AT_EPOCH":1362,"BSTAR":0.00014617257,"MEAN_MOTION_DOT":2.14e-6,"MEAN_MOTION_DDOT":0},{"OBJECT_NAME":"FENGYUN 1C DEB","OBJECT_ID":"1999-025EXB","EPOCH":"2026-02-23T13:42:59.544864","MEAN_MOTION":14.51393564,"ECCENTRICITY":0.0280295,"INCLINATION":99.4251,"RA_OF_ASC_NODE":186.6378,"ARG_OF_PERICENTER":116.5278,"MEAN_ANOMALY":246.4942,"EPHEMERIS_TYPE":0,"CLASSIFICATION_TYPE":"U","NORAD_CAT_ID":40695,"ELEMENT_SET_NO":999,"REV_AT_EPOCH":32922,"BSTAR":0.00034500254,"MEAN_MOTION_DOT":2.228e-5,"MEAN_MOTION_DDOT":0}]
